NORAD_CAT_ID,OBJECT_NAME,OBJECT_TYPE,EPOCH,MEAN_MOTION,ECCENTRICITY,INCLINATION,RA_OF_ASC_NODE,ARG_OF_PERICENTER,MEAN_ANOMALY,BSTAR,MEAN_MOTION_DOT,MEAN_MOTION_DDOT,TLE_LINE0,TLE_LINE1,TLE_LINE2,SEMIMAJOR_AXIS,PERIOD,APOGEE,PERIGEE,DECAYED
53595.0,STARLINK-4684,PAYLOAD,2024-01-17 14:04:26,15.08843422,0.0001355,53.2168,155.1268,96.3113,263.8033,-6.2584e-05,-1.284e-05,0.0,0 STARLINK-4684,1 53595U 22104H   24017.58642083 -.00001284  00000-0 -62584-4 0  9992,2 53595  53.2168 155.1268 0001355  96.3113 263.8033 15.08843422 77870,6917.87,95.437,540.672,538.798,0.0
53595.0,STARLINK-4684,PAYLOAD,2024-01-17 15:39:49,15.08844177,0.000135,53.217,154.8297,92.2953,267.8193,-5.6962e-05,-1.194e-05,0.0,0 STARLINK-4684,1 53595U 22104H   24017.65266021 -.00001194  00000-0 -56962-4 0  9997,2 53595  53.2170 154.8297 0001350  92.2953 267.8193 15.08844177 77883,6917.868,95.437,540.667,538.799,0.0
53595.0,STARLINK-4684,PAYLOAD,2024-01-18 13:55:13,15.08840448,0.0001677,53.2173,150.665,115.5499,244.5666,3.9102e-05,3.34e-06,0.0,0 STARLINK-4684,1 53595U 22104H   24018.58002163  .00000334  00000-0  39102-4 0  9995,2 53595  53.2173 150.6650 0001677 115.5499 244.5666 15.08840448 78020,6917.879,95.438,540.904,538.584,0.0
53595.0,STARLINK-4684,PAYLOAD,2024-01-18 15:30:37,15.08840232,0.0001571,53.2174,150.3716,104.6529,255.4638,6.9679e-05,8.21e-06,0.0,0 STARLINK-4684,1 53595U 22104H   24018.64626174  .00000821  00000-0  69679-4 0  9999,2 53595  53.2174 150.3716 0001571 104.6529 255.4638 15.08840232 77421,6917.88,95.438,540.831,538.658,0.0
53595.0,STARLINK-4684,PAYLOAD,2024-01-19 13:46:00,15.08840843,0.0001869,53.2189,146.2172,112.6167,247.5023,0.0001294,1.772e-05,0.0,0 STARLINK-4684,1 53595U 22104H   24019.57362156  .00001772  00000-0  12940-3 0  9993,2 53595  53.2189 146.2172 0001869 112.6167 247.5023 15.08840843 78175,6917.878,95.438,541.036,538.45,0.0
53595.0,STARLINK-4684,PAYLOAD,2024-01-19 15:21:23,15.08846826,0.0002052,53.2184,145.9171,120.1216,239.998,8.898e-05,1.128e-05,0.0,0 STARLINK-4684,1 53595U 22104H   24019.63985838  .00001128  00000-0  88980-4 0  9991,2 53595  53.2184 145.9171 0002052 120.1216 239.9980 15.08846826 78184,6917.86,95.437,541.144,538.305,0.0
53595.0,STARLINK-4684,PAYLOAD,2024-01-20 12:01:25,15.08831526,0.0001507,53.2181,142.0451,99.1593,260.9569,8.4199e-07,-2.75e-06,0.0,0 STARLINK-4684,1 53595U 22104H   24020.50099378 -.00000275  00000-0  84199-6 0  9997,2 53595  53.2181 142.0451 0001507  99.1593 260.9569 15.08831526 77702,6917.906,95.438,540.814,538.729,0.0
53595.0,STARLINK-4684,PAYLOAD,2024-01-20 13:36:49,15.08831564,0.0001499,53.2178,141.7476,95.7402,264.3761,3.0951e-06,-2.39e-06,0.0,0 STARLINK-4684,1 53595U 22104H   24020.56723426 -.00000239  00000-0  30951-5 0  9997,2 53595  53.2178 141.7476 0001499  95.7402 264.3761 15.08831564 78325,6917.906,95.438,540.808,538.734,0.0
53595.0,STARLINK-4684,PAYLOAD,2024-01-20 15:12:12,15.08830926,0.000146,53.2178,141.4506,95.625,264.4909,-9.6686e-06,-4.42e-06,0.0,0 STARLINK-4684,1 53595U 22104H   24020.63347523 -.00000442  00000-0 -96686-5 0  9999,2 53595  53.2178 141.4506 0001460  95.6250 264.4909 15.08830926 78331,6917.908,95.438,540.783,538.763,0.0
53595.0,STARLINK-4684,PAYLOAD,2024-01-21 07:06:03,15.08839592,0.0001306,53.2172,138.4757,95.8472,264.2669,2.1863e-05,6e-07,0.0,0 STARLINK-4684,1 53595U 22104H   24021.29587180  .00000060  00000-0  21863-4 0  9995,2 53595  53.2172 138.4757 0001306  95.8472 264.2669 15.08839592 78436,6917.882,95.438,540.65,538.843,0.0
53595.0,STARLINK-4684,PAYLOAD,2024-01-21 13:27:35,15.08845605,0.0001643,53.2182,137.2939,73.4281,286.6892,7.6041e-05,9.23e-06,0.0,0 STARLINK-4684,1 53595U 22104H   24021.56082759  .00000923  00000-0  76041-4 0  9993,2 53595  53.2182 137.2939 0001643  73.4281 286.6892 15.08845605 77864,6917.863,95.437,540.865,538.592,0.0
53595.0,STARLINK-4684,PAYLOAD,2024-01-21 15:02:58,15.08848725,0.0001907,53.2187,136.9961,60.2069,299.9113,0.00011818,1.594e-05,0.0,0 STARLINK-4684,1 53595U 22104H   24021.62706547  .00001594  00000-0  11818-3 0  9993,2 53595  53.2187 136.9961 0001907  60.2069 299.9113 15.08848725 78489,6917.854,95.437,541.038,538.399,0.0
53595.0,STARLINK-4684,PAYLOAD,2024-01-22 06:56:50,15.08833263,0.0001692,53.2178,134.0224,59.3014,300.8144,0.000224,3.278e-05,0.0,0 STARLINK-4684,1 53595U 22104H   24022.28947120  .00003278  00000-0  22400-3 0  9990,2 53595  53.2178 134.0224 0001692  59.3014 300.8144 15.08833263 78588,6917.901,95.438,540.936,538.595,0.0
53595.0,STARLINK-4684,PAYLOAD,2024-01-22 11:42:59,15.08837192,0.0001318,53.2167,133.1268,65.1176,294.9953,0.00016344,2.314e-05,0.0,0 STARLINK-4684,1 53595U 22104H   24022.48819118  .00002314  00000-0  16344-3 0  9997,2 53595  53.2167 133.1268 0001318  65.1176 294.9953 15.08837192 78006,6917.889,95.438,540.666,538.842,0.0
53595.0,STARLINK-4684,PAYLOAD,2024-01-22 14:53:45,15.08844676,0.0001346,53.2159,132.5296,71.8657,288.2482,0.00019599,2.833e-05,0.0,0 STARLINK-4684,1 53595U 22104H   24022.62066708  .00002833  00000-0  19599-3 0  9993,2 53595  53.2159 132.5296 0001346  71.8657 288.2482 15.08844676 78637,6917.866,95.437,540.662,538.8,0.0
53595.0,STARLINK-4684,PAYLOAD,2024-01-23 13:09:09,15.08852185,0.0001988,53.217,128.3668,58.0936,302.025,6.1666e-05,6.94e-06,0.0,0 STARLINK-4684,1 53595U 22104H   24023.54802285  .00000694  00000-0  61666-4 0  9999,2 53595  53.2170 128.3668 0001988  58.0936 302.0250 15.08852185 78772,6917.843,95.437,541.083,538.333,0.0
53595.0,STARLINK-4684,PAYLOAD,2024-01-24 11:24:33,15.08839246,0.0001434,53.2161,124.2039,89.3901,270.7255,2.0468e-05,3.8e-07,0.0,0 STARLINK-4684,1 53595U 22104H   24024.47538935  .00000038  00000-0  20468-4 0  9997,2 53595  53.2161 124.2039 0001434  89.3901 270.7255 15.08839246 78302,6917.883,95.438,540.74,538.756,0.0
53595.0,STARLINK-4684,PAYLOAD,2024-01-24 12:59:56,15.08839582,0.000151,53.2162,123.9065,95.1554,264.9611,2.2419e-05,6.9e-07,0.0,0 STARLINK-4684,1 53595U 22104H   24024.54162905  .00000069  00000-0  22419-4 0  9997,2 53595  53.2162 123.9065 0001510  95.1554 264.9611 15.08839582 78924,6917.882,95.438,540.791,538.702,0.0
53595.0,STARLINK-4684,PAYLOAD,2024-01-25 11:15:20,15.08846677,0.0001706,53.2175,119.7501,105.2409,254.8772,-1.7807e-05,-5.72e-06,0.0,0 STARLINK-4684,1 53595U 22104H   24025.46899003 -.00000572  00000-0 -17807-4 0  9991,2 53595  53.2175 119.7501 0001706 105.2409 254.8772 15.08846677 79060,6917.86,95.437,540.905,538.545,0.0
53595.0,STARLINK-4684,PAYLOAD,2024-01-26 11:06:07,15.0884475,0.0001914,53.2184,115.2919,113.1084,247.011,0.00020237,2.934e-05,0.0,0 STARLINK-4684,1 53595U 22104H   24026.46258717  .00002934  00000-0  20237-3 0  9995,2 53595  53.2184 115.2919 0001914 113.1084 247.0110 15.08844750 78601,6917.866,95.437,541.055,538.407,0.0
53595.0,STARLINK-4684,PAYLOAD,2024-01-26 12:41:28,15.0889829,0.0003068,53.2185,114.994,22.5603,337.5523,0.0010152,0.00015932,0.0,0 STARLINK-4684,1 53595U 22104H   24026.52880530  .00015932  00000-0  10152-2 0  9992,2 53595  53.2185 114.9940 0003068  22.5603 337.5523 15.08898290 79224,6917.702,95.434,541.69,537.445,0.0
53595.0,STARLINK-4684,PAYLOAD,2024-01-27 12:32:18,15.0885197,0.0001395,53.2174,110.5288,98.2159,261.8992,3.5218e-05,2.73e-06,0.0,0 STARLINK-4684,1 53595U 22104H   24027.52243216  .00000273  00000-0  35218-4 0  9991,2 53595  53.2174 110.5288 0001395  98.2159 261.8992 15.08851970 78767,6917.844,95.437,540.674,538.744,0.0
53595.0,STARLINK-4684,PAYLOAD,2024-01-28 10:47:42,15.08840614,0.0001454,53.218,106.3623,93.8624,266.2535,-4.537e-05,-1.01e-05,0.0,0 STARLINK-4684,1 53595U 22104H   24028.44979890 -.00001010  00000-0 -45370-4 0  9999,2 53595  53.2180 106.3623 0001454  93.8624 266.2535 15.08840614 78905,6917.879,95.438,540.749,538.738,0.0
53595.0,STARLINK-4684,PAYLOAD,2024-01-28 13:58:28,15.088415,0.0001524,53.2185,105.7671,81.1516,278.9649,-2.7577e-05,-7.27e-06,0.0,0 STARLINK-4684,1 53595U 22104H   24028.58227816 -.00000727  00000-0 -27577-4 0  9991,2 53595  53.2185 105.7671 0001524  81.1516 278.9649 15.08841500 79535,6917.876,95.437,540.795,538.687,0.0
53595.0,STARLINK-4684,PAYLOAD,2024-01-29 12:13:53,15.08815537,0.0001951,53.2173,101.6044,80.8291,279.2922,0.0011831,0.00018579,0.0,0 STARLINK-4684,1 53595U 22104H   24029.50965188  .00018579  00000-0  11831-2 0  9991,2 53595  53.2173 101.6044 0001951  80.8291 279.2922 15.08815537 79068,6917.955,95.439,541.17,538.47,0.0
53595.0,STARLINK-4684,PAYLOAD,2024-01-29 13:49:16,15.08819431,0.0001965,53.2174,101.3069,82.2359,277.8856,0.001139,0.00017876,0.0,0 STARLINK-4684,1 53595U 22104H   24029.57589087  .00017876  00000-0  11390-2 0  9997,2 53595  53.2174 101.3069 0001965  82.2359 277.8856 15.08819431 79684,6917.943,95.439,541.168,538.449,0.0
53595.0,STARLINK-4684,PAYLOAD,2024-01-30 12:04:39,15.08840877,0.0001627,53.2177,97.1422,84.1727,275.9451,0.00010019,1.307e-05,0.0,0 STARLINK-4684,1 53595U 22104H   24030.50323842  .00001307  00000-0  10019-3 0  9997,2 53595  53.2177  97.1422 0001627  84.1727 275.9451 15.08840877 79214,6917.878,95.437,540.868,538.617,0.0
53595.0,STARLINK-4684,PAYLOAD,2024-01-31 10:20:03,15.0884637,0.0001656,53.2187,92.9774,81.6437,278.4743,-7.9028e-05,-1.546e-05,0.0,0 STARLINK-4684,1 53595U 22104H   24031.43059669 -.00001546  00000-0 -79028-4 0  9996,2 53595  53.2187  92.9774 0001656  81.6437 278.4743 15.08846370 79968,6917.861,95.437,540.872,538.58,0.0
53595.0,STARLINK-4684,PAYLOAD,2024-02-01 10:10:50,15.08841168,0.0001474,53.2178,88.5281,93.9622,266.1539,0.00010997,1.463e-05,0.0,0 STARLINK-4684,1 53595U 22104H   24032.42419897  .00001463  00000-0  10997-3 0  9994,2 53595  53.2178  88.5281 0001474  93.9622 266.1539 15.08841168 79509,6917.877,95.437,540.762,538.722,0.0
53595.0,STARLINK-4684,PAYLOAD,2024-02-01 13:21:36,15.08843392,0.0001481,53.2179,87.924,96.11,264.0061,0.00012703,1.734e-05,0.0,0 STARLINK-4684,1 53595U 22104H   24032.55667622  .00001734  00000-0  12703-3 0  9997,2 53595  53.2179  87.9240 0001481  96.1100 264.0061 15.08843392 80131,6917.87,95.437,540.76,538.71,0.0
